{
  "type": "FeatureCollection",
  "features": [
    {
      "type": "Feature",
      "properties": {
        "norad_id": 30516,
        "name": "FENGYUN 1C DEB",
        "group": "fengyun-1c-debris",
        "lat": 4.394674689010299,
        "lon": 93.39038581078434,
        "alt_km": 755.5031039646119,
        "timestamp": "2025-12-15T22:44:29.204795+00:00",
        "meta_object_name": "FENGYUN 1C DEB",
        "meta_object_id": "1999-025AJE",
        "meta_epoch": "2025-12-15T06:11:47.817312",
        "meta_mean_motion": 14.41379445,
        "meta_eccentricity": 0.00093896,
        "meta_inclination": 98.8569,
        "meta_ra_of_asc_node": 93.3628,
        "meta_arg_of_pericenter": 283.1291,
        "meta_mean_anomaly": 106.2615,
        "meta_ephemeris_type": 0,
        "meta_classification_type": "U",
        "meta_norad_cat_id": 30516,
        "meta_element_set_no": 999,
        "meta_rev_at_epoch": 97751,
        "meta_bstar": 0.0015142551,
        "meta_mean_motion_dot": 4.863e-05,
        "meta_mean_motion_ddot": 0,
        "tle_line1": "1 30516U 99025AJE 25349.25819233  .00004863  00000+0  15143-2 0  9992",
        "tle_line2": "2 30516  98.8569  93.3628 0009389 283.1291 106.2615 14.41379445977510"
      },
      "geometry": {
        "type": "Point",
        "coordinates": [
          93.39038581078434,
          4.394674689010299
        ]
      }
    },
    {
      "type": "Feature",
      "properties": {
        "norad_id": 30520,
        "name": "FENGYUN 1C DEB",
        "group": "fengyun-1c-debris",
        "lat": -66.02649853940288,
        "lon": -36.96999952664466,
        "alt_km": 575.5909704874148,
        "timestamp": "2025-12-15T22:44:29.204805+00:00",
        "meta_object_name": "FENGYUN 1C DEB",
        "meta_object_id": "1999-025AJJ",
        "meta_epoch": "2025-12-15T04:12:38.080800",
        "meta_mean_motion": 15.14178939,
        "meta_eccentricity": 0.00701976,
        "meta_inclination": 98.7174,
        "meta_ra_of_asc_node": 162.332,
        "meta_arg_of_pericenter": 91.8107,
        "meta_mean_anomaly": 269.1162,
        "meta_ephemeris_type": 0,
        "meta_classification_type": "U",
        "meta_norad_cat_id": 30520,
        "meta_element_set_no": 999,
        "meta_rev_at_epoch": 1078,
        "meta_bstar": 0.00074223034,
        "meta_mean_motion_dot": 0.00014331,
        "meta_mean_motion_ddot": 0,
        "tle_line1": "1 30520U 99025AJJ 25349.17544075  .00014331  00000+0  74223-3 0  9993",
        "tle_line2": "2 30520  98.7174 162.3320 0070197  91.8107 269.1162 15.14178939 10786"
      },
      "geometry": {
        "type": "Point",
        "coordinates": [
          -36.96999952664466,
          -66.02649853940288
        ]
      }
    },
    {
      "type": "Feature",
      "properties": {
        "norad_id": 30521,
        "name": "FENGYUN 1C DEB",
        "group": "fengyun-1c-debris",
        "lat": 52.717990777600946,
        "lon": -42.559192326263755,
        "alt_km": 721.6967682108107,
        "timestamp": "2025-12-15T22:44:29.204815+00:00",
        "meta_object_name": "FENGYUN 1C DEB",
        "meta_object_id": "1999-025AJK",
        "meta_epoch": "2025-12-15T07:19:51.949632",
        "meta_mean_motion": 14.58273932,
        "meta_eccentricity": 0.0135654,
        "meta_inclination": 98.9877,
        "meta_ra_of_asc_node": 124.7481,
        "meta_arg_of_pericenter": 235.8675,
        "meta_mean_anomaly": 122.9594,
        "meta_ephemeris_type": 0,
        "meta_classification_type": "U",
        "meta_norad_cat_id": 30521,
        "meta_element_set_no": 999,
        "meta_rev_at_epoch": 99619,
        "meta_bstar": 0.00060605752,
        "meta_mean_motion_dot": 3.119e-05,
        "meta_mean_motion_ddot": 0,
        "tle_line1": "1 30521U 99025AJK 25349.30546238  .00003119  00000+0  60606-3 0  9994",
        "tle_line2": "2 30521  98.9877 124.7481 0135654 235.8675 122.9594 14.58273932996198"
      },
      "geometry": {
        "type": "Point",
        "coordinates": [
          -42.559192326263755,
          52.717990777600946
        ]
      }
    },
    {
      "type": "Feature",
      "properties": {
        "norad_id": 30523,
        "name": "FENGYUN 1C DEB",
        "group": "fengyun-1c-debris",
        "lat": 44.37108746500134,
        "lon": -40.18934030893125,
        "alt_km": 689.2248519642862,
        "timestamp": "2025-12-15T22:44:29.204825+00:00",
        "meta_object_name": "FENGYUN 1C DEB",
        "meta_object_id": "1999-025AJM",
        "meta_epoch": "2025-12-15T04:37:01.405632",
        "meta_mean_motion": 14.27933037,
        "meta_eccentricity": 0.02441756,
        "meta_inclination": 98.4661,
        "meta_ra_of_asc_node": 327.4561,
        "meta_arg_of_pericenter": 101.3588,
        "meta_mean_anomaly": 26.112,
        "meta_ephemeris_type": 0,
        "meta_classification_type": "U",
        "meta_norad_cat_id": 30523,
        "meta_element_set_no": 999,
        "meta_rev_at_epoch": 98135,
        "meta_bstar": 0.00019115648,
        "meta_mean_motion_dot": 6.05e-06,
        "meta_mean_motion_ddot": 0,
        "tle_line1": "1 30523U 99025AJM 25349.19237738  .00000605  00000+0  19116-3 0  9992",
        "tle_line2": "2 30523  98.4661 327.4561 0244175 101.3588  26.1120 14.27933037981353"
      },
      "geometry": {
        "type": "Point",
        "coordinates": [
          -40.18934030893125,
          44.37108746500134
        ]
      }
    },
    {
      "type": "Feature",
      "properties": {
        "norad_id": 30524,
        "name": "FENGYUN 1C DEB",
        "group": "fengyun-1c-debris",
        "lat": -40.72276062461641,
        "lon": 170.188866833168,
        "alt_km": 890.1740003914492,
        "timestamp": "2025-12-15T22:44:29.204835+00:00",
        "meta_object_name": "FENGYUN 1C DEB",
        "meta_object_id": "1999-025AJN",
        "meta_epoch": "2025-12-14T10:43:13.503648",
        "meta_mean_motion": 13.92232904,
        "meta_eccentricity": 0.02079128,
        "meta_inclination": 99.3087,
        "meta_ra_of_asc_node": 160.5643,
        "meta_arg_of_pericenter": 245.72,
        "meta_mean_anomaly": 112.2117,
        "meta_ephemeris_type": 0,
        "meta_classification_type": "U",
        "meta_norad_cat_id": 30524,
        "meta_element_set_no": 999,
        "meta_rev_at_epoch": 93909,
        "meta_bstar": 0.0057105766,
        "meta_mean_motion_dot": 8.699e-05,
        "meta_mean_motion_ddot": 0,
        "tle_line1": "1 30524U 99025AJN 25348.44668407  .00008699  00000+0  57106-2 0  9992",
        "tle_line2": "2 30524  99.3087 160.5643 0207912 245.7200 112.2117 13.92232904939098"
      },
      "geometry": {
        "type": "Point",
        "coordinates": [
          170.188866833168,
          -40.72276062461641
        ]
      }
    },
    {
      "type": "Feature",
      "properties": {
        "norad_id": 30525,
        "name": "FENGYUN 1C DEB",
        "group": "fengyun-1c-debris",
        "lat": 14.655441144642902,
        "lon": 56.92350730813085,
        "alt_km": 1195.1990329118426,
        "timestamp": "2025-12-15T22:44:29.204846+00:00",
        "meta_object_name": "FENGYUN 1C DEB",
        "meta_object_id": "1999-025AJP",
        "meta_epoch": "2025-12-11T15:23:44.239200",
        "meta_mean_motion": 13.58601953,
        "meta_eccentricity": 0.02937099,
        "meta_inclination": 98.6024,
        "meta_ra_of_asc_node": 230.8726,
        "meta_arg_of_pericenter": 312.3562,
        "meta_mean_anomaly": 45.3044,
        "meta_ephemeris_type": 0,
        "meta_classification_type": "U",
        "meta_norad_cat_id": 30525,
        "meta_element_set_no": 999,
        "meta_rev_at_epoch": 93102,
        "meta_bstar": 0.0022686039,
        "meta_mean_motion_dot": 2.156e-05,
        "meta_mean_motion_ddot": 0,
        "tle_line1": "1 30525U 99025AJP 25345.64148425  .00002156  00000+0  22686-2 0  9992",
        "tle_line2": "2 30525  98.6024 230.8726 0293709 312.3562  45.3044 13.58601953931022"
      },
      "geometry": {
        "type": "Point",
        "coordinates": [
          56.92350730813085,
          14.655441144642902
        ]
      }
    },
    {
      "type": "Feature",
      "properties": {
        "norad_id": 30526,
        "name": "FENGYUN 1C DEB",
        "group": "fengyun-1c-debris",
        "lat": 55.30156010395554,
        "lon": 58.0153282824128,
        "alt_km": 1280.4501392604598,
        "timestamp": "2025-12-15T22:44:29.204856+00:00",
        "meta_object_name": "FENGYUN 1C DEB",
        "meta_object_id": "1999-025AJQ",
        "meta_epoch": "2025-12-13T11:45:03.225888",
        "meta_mean_motion": 13.49909443,
        "meta_eccentricity": 0.03061001,
        "meta_inclination": 99.5472,
        "meta_ra_of_asc_node": 69.7235,
        "meta_arg_of_pericenter": 262.8509,
        "meta_mean_anomaly": 93.7734,
        "meta_ephemeris_type": 0,
        "meta_classification_type": "U",
        "meta_norad_cat_id": 30526,
        "meta_element_set_no": 999,
        "meta_rev_at_epoch": 92668,
        "meta_bstar": 0.0018721459,
        "meta_mean_motion_dot": 1.546e-05,
        "meta_mean_motion_ddot": 0,
        "tle_line1": "1 30526U 99025AJQ 25347.48962067  .00001546  00000+0  18721-2 0  9990",
        "tle_line2": "2 30526  99.5472  69.7235 0306100 262.8509  93.7734 13.49909443926688"
      },
      "geometry": {
        "type": "Point",
        "coordinates": [
          58.0153282824128,
          55.30156010395554
        ]
      }
    }
  ]
}